start=new Date('2022-04-05T00:00:00.000Z').valueOf();
sats=[{"SITE":"AFETR","EPHEMERIS_TYPE":"0","MEAN_MOTION_DDOT":"0.0000000000000","REV_AT_EPOCH":"10201","RA_OF_ASC_NODE":"29.2998","ECCENTRICITY":"0.00013990","LAUNCH_DATE":"2020-06-04","REF_FRAME":"TEME","DECAY_DATE":null,"SEMIMAJOR_AXIS":"6925.383","MEAN_MOTION_DOT":"-0.00000487","PERIOD":"95.593","OBJECT_TYPE":"PAYLOAD","CENTER_NAME":"EARTH","RCS_SIZE":"LARGE","OBJECT_NAME":"STARLINK-1442","PERIAPSIS":"546.279","APOAPSIS":"548.217","MEAN_ELEMENT_THEORY":"SGP4","EPOCH":"2022-04-04T12:45:59.962464","OBJECT_ID":"2020-035C","BSTAR":"-0.00001382700000","MEAN_ANOMALY":"292.5876","INCLINATION":"53.0565","CLASSIFICATION_TYPE":"U","ELEMENT_SET_NO":"999","GP_ID":"200434659","TLE_LINE1":"1 45659U 20035C   22094.53194401 -.00000487  00000-0 -13827-4 0  9999","COUNTRY_CODE":"US","TLE_LINE2":"2 45659  53.0565  29.2998 0001399  67.5261 292.5876 15.06388787102019","FILE":"3388229","NORAD_CAT_ID":"45659","ARG_OF_PERICENTER":"67.5261","MEAN_MOTION":"15.06388787","TIME_SYSTEM":"UTC"},{"TLE_LINE2":"2 45660  53.0564  29.2584 0001510  59.2919 300.8219 15.06376917102425","TLE_LINE1":"1 45660U 20035D   22094.54026476  .00001411  00000-0  11370-3 0  9994","GP_ID":"200422328","COUNTRY_CODE":"US","ELEMENT_SET_NO":"999","CLASSIFICATION_TYPE":"U","MEAN_ANOMALY":"300.8219","INCLINATION":"53.0564","BSTAR":"0.00011370000000","OBJECT_ID":"2020-035D","EPOCH":"2022-04-04T12:57:58.875264","TIME_SYSTEM":"UTC","MEAN_MOTION":"15.06376917","ARG_OF_PERICENTER":"59.2919","NORAD_CAT_ID":"45660","FILE":"3387897","PERIOD":"95.594","MEAN_MOTION_DOT":"0.00001411","SEMIMAJOR_AXIS":"6925.419","DECAY_DATE":null,"REF_FRAME":"TEME","LAUNCH_DATE":"2020-06-04","RA_OF_ASC_NODE":"29.2584","ECCENTRICITY":"0.00015100","REV_AT_EPOCH":"10242","MEAN_MOTION_DDOT":"0.0000000000000","SITE":"AFETR","EPHEMERIS_TYPE":"0","MEAN_ELEMENT_THEORY":"SGP4","APOAPSIS":"548.330","PERIAPSIS":"546.239","OBJECT_NAME":"STARLINK-1443","RCS_SIZE":"LARGE","CENTER_NAME":"EARTH","OBJECT_TYPE":"PAYLOAD"},{"APOAPSIS":"548.272","MEAN_ELEMENT_THEORY":"SGP4","OBJECT_TYPE":"PAYLOAD","RCS_SIZE":"LARGE","CENTER_NAME":"EARTH","OBJECT_NAME":"STARLINK-1444","PERIAPSIS":"546.270","REF_FRAME":"TEME","SEMIMAJOR_AXIS":"6925.406","DECAY_DATE":null,"PERIOD":"95.593","MEAN_MOTION_DOT":"0.00000176","EPHEMERIS_TYPE":"0","SITE":"AFETR","MEAN_MOTION_DDOT":"0.0000000000000","ECCENTRICITY":"0.00014450","RA_OF_ASC_NODE":"30.3595","REV_AT_EPOCH":"10238","LAUNCH_DATE":"2020-06-04","MEAN_MOTION":"15.06381301","TIME_SYSTEM":"UTC","FILE":"3387897","NORAD_CAT_ID":"45661","ARG_OF_PERICENTER":"63.9009","TLE_LINE2":"2 45661  53.0573  30.3595 0001445  63.9009 296.2129 15.06381301102386","TLE_LINE1":"1 45661U 20035E   22094.29329888  .00000176  00000-0  30707-4 0  9993","COUNTRY_CODE":"US","GP_ID":"200423077","OBJECT_ID":"2020-035E","EPOCH":"2022-04-04T07:02:21.023232","BSTAR":"0.00003070700000","MEAN_ANOMALY":"296.2129","INCLINATION":"53.0573","ELEMENT_SET_NO":"999","CLASSIFICATION_TYPE":"U"},{"APOAPSIS":"548.392","MEAN_ELEMENT_THEORY":"SGP4","OBJECT_TYPE":"PAYLOAD","RCS_SIZE":"LARGE","CENTER_NAME":"EARTH","OBJECT_NAME":"STARLINK-1445","PERIAPSIS":"546.138","REF_FRAME":"TEME","DECAY_DATE":null,"SEMIMAJOR_AXIS":"6925.400","PERIOD":"95.593","MEAN_MOTION_DOT":"0.00001207","EPHEMERIS_TYPE":"0","SITE":"AFETR","MEAN_MOTION_DDOT":"0.0000000000000","ECCENTRICITY":"0.00016270","RA_OF_ASC_NODE":"29.3933","REV_AT_EPOCH":"10205","LAUNCH_DATE":"2020-06-04","MEAN_MOTION":"15.06383208","TIME_SYSTEM":"UTC","FILE":"3388229","NORAD_CAT_ID":"45662","ARG_OF_PERICENTER":"62.5481","TLE_LINE2":"2 45662  53.0554  29.3933 0001627  62.5481 297.5673 15.06383208102051","TLE_LINE1":"1 45662U 20035F   22094.50708672  .00001207  00000-0  99940-4 0  9990","COUNTRY_CODE":"US","GP_ID":"200435156","OBJECT_ID":"2020-035F","EPOCH":"2022-04-04T12:10:12.292608","BSTAR":"0.00009994000000","INCLINATION":"53.0554","MEAN_ANOMALY":"297.5673","ELEMENT_SET_NO":"999","CLASSIFICATION_TYPE":"U"},{"DECAY_DATE":null,"SEMIMAJOR_AXIS":"6925.389","PERIOD":"95.593","MEAN_MOTION_DOT":"0.00001015","REF_FRAME":"TEME","RA_OF_ASC_NODE":"29.3803","ECCENTRICITY":"0.00014660","REV_AT_EPOCH":"10241","LAUNCH_DATE":"2020-06-04","EPHEMERIS_TYPE":"0","SITE":"AFETR","MEAN_MOTION_DDOT":"0.0000000000000","MEAN_ELEMENT_THEORY":"SGP4","APOAPSIS":"548.269","OBJECT_NAME":"STARLINK-1446","PERIAPSIS":"546.239","OBJECT_TYPE":"PAYLOAD","RCS_SIZE":"LARGE","CENTER_NAME":"EARTH","TLE_LINE2":"2 45663  53.0559  29.3803 0001466  67.1319 292.9825 15.06386762102411","TLE_LINE1":"1 45663U 20035G   22094.51076511  .00001015  00000-0  87037-4 0  9993","COUNTRY_CODE":"US","GP_ID":"200424060","MEAN_ANOMALY":"292.9825","INCLINATION":"53.0559","CLASSIFICATION_TYPE":"U","ELEMENT_SET_NO":"999","OBJECT_ID":"2020-035G","EPOCH":"2022-04-04T12:15:30.105504","BSTAR":"0.00008703700000","TIME_SYSTEM":"UTC","MEAN_MOTION":"15.06386762","ARG_OF_PERICENTER":"67.1319","FILE":"3387897","NORAD_CAT_ID":"45663"},{"FILE":"3388230","NORAD_CAT_ID":"45665","ARG_OF_PERICENTER":"64.8266","MEAN_MOTION":"15.06393897","TIME_SYSTEM":"UTC","EPOCH":"2022-04-04T19:25:25.737888","OBJECT_ID":"2020-035J","BSTAR":"0.00018080000000","MEAN_ANOMALY":"295.2876","INCLINATION":"53.0555","CLASSIFICATION_TYPE":"U","ELEMENT_SET_NO":"999","TLE_LINE1":"1 45665U 20035J   22094.80932567  .00002412  00000-0  18080-3 0  9992","GP_ID":"200435168","COUNTRY_CODE":"US","TLE_LINE2":"2 45665  53.0555  28.0341 0001482  64.8266 295.2876 15.06393897102054","OBJECT_TYPE":"PAYLOAD","CENTER_NAME":"EARTH","RCS_SIZE":"LARGE","OBJECT_NAME":"STARLINK-1448","PERIAPSIS":"546.206","APOAPSIS":"548.259","MEAN_ELEMENT_THEORY":"SGP4","EPHEMERIS_TYPE":"0","SITE":"AFETR","MEAN_MOTION_DDOT":"0.0000000000000","REV_AT_EPOCH":"10205","ECCENTRICITY":"0.00014820","RA_OF_ASC_NODE":"28.0341","LAUNCH_DATE":"2020-06-04","REF_FRAME":"TEME","SEMIMAJOR_AXIS":"6925.367","DECAY_DATE":null,"MEAN_MOTION_DOT":"0.00002412","PERIOD":"95.593"},{"SITE":"AFETR","EPHEMERIS_TYPE":"0","MEAN_MOTION_DDOT":"0.0000000000000","RA_OF_ASC_NODE":"29.2163","ECCENTRICITY":"0.00016150","REV_AT_EPOCH":"10201","LAUNCH_DATE":"2020-06-04","REF_FRAME":"TEME","SEMIMAJOR_AXIS":"6925.389","DECAY_DATE":null,"PERIOD":"95.593","MEAN_MOTION_DOT":"0.00004453","OBJECT_TYPE":"PAYLOAD","RCS_SIZE":"LARGE","CENTER_NAME":"EARTH","OBJECT_NAME":"STARLINK-1449","PERIAPSIS":"546.135","APOAPSIS":"548.372","MEAN_ELEMENT_THEORY":"SGP4","OBJECT_ID":"2020-035K","EPOCH":"2022-04-04T13:12:32.478624","BSTAR":"0.00031778000000","INCLINATION":"53.0561","MEAN_ANOMALY":"298.3089","CLASSIFICATION_TYPE":"U","ELEMENT_SET_NO":"999","TLE_LINE2":"2 45666  53.0561  29.2163 0001615  61.8063 298.3089 15.06386842102015","TLE_LINE1":"1 45666U 20035K   22094.55037591  .00004453  00000-0  31778-3 0  9994","GP_ID":"200434670","COUNTRY_CODE":"US","FILE":"3388230","NORAD_CAT_ID":"45666","ARG_OF_PERICENTER":"61.8063","MEAN_MOTION":"15.06386842","TIME_SYSTEM":"UTC"},{"TLE_LINE2":"2 45667  53.0558  29.2133 0001436  72.1026 288.0119 15.06382461102411","TLE_LINE1":"1 45667U 20035L   22094.54763286  .00000259  00000-0  36326-4 0  9996","COUNTRY_CODE":"US","GP_ID":"200423824","CLASSIFICATION_TYPE":"U","ELEMENT_SET_NO":"999","MEAN_ANOMALY":"288.0119","INCLINATION":"53.0558","BSTAR":"0.00003632600000","OBJECT_ID":"2020-035L","EPOCH":"2022-04-04T13:08:35.479104","TIME_SYSTEM":"UTC","MEAN_MOTION":"15.06382461","ARG_OF_PERICENTER":"72.1026","NORAD_CAT_ID":"45667","FILE":"3387897","PERIOD":"95.593","MEAN_MOTION_DOT":"0.00000259","DECAY_DATE":null,"SEMIMAJOR_AXIS":"6925.402","REF_FRAME":"TEME","LAUNCH_DATE":"2020-06-04","RA_OF_ASC_NODE":"29.2133","ECCENTRICITY":"0.00014360","REV_AT_EPOCH":"10241","MEAN_MOTION_DDOT":"0.0000000000000","EPHEMERIS_TYPE":"0","SITE":"AFETR","MEAN_ELEMENT_THEORY":"SGP4","APOAPSIS":"548.262","PERIAPSIS":"546.273","OBJECT_NAME":"STARLINK-1450","RCS_SIZE":"LARGE","CENTER_NAME":"EARTH","OBJECT_TYPE":"PAYLOAD"},{"NORAD_CAT_ID":"45668","FILE":"3387897","ARG_OF_PERICENTER":"58.0343","MEAN_MOTION":"15.06382486","TIME_SYSTEM":"UTC","BSTAR":"0.00041235000000","EPOCH":"2022-04-04T12:24:45.291168","OBJECT_ID":"2020-035M","ELEMENT_SET_NO":"999","CLASSIFICATION_TYPE":"U","INCLINATION":"53.0588","MEAN_ANOMALY":"302.0798","GP_ID":"200423561","TLE_LINE1":"1 45668U 20035M   22094.51719087  .00005863  00000-0  41235-3 0  9994","COUNTRY_CODE":"US","TLE_LINE2":"2 45668  53.0588  29.3517 0001564  58.0343 302.0798 15.06382486102427","CENTER_NAME":"EARTH","RCS_SIZE":"LARGE","OBJECT_TYPE":"PAYLOAD","PERIAPSIS":"546.184","OBJECT_NAME":"STARLINK-1451","APOAPSIS":"548.350","MEAN_ELEMENT_THEORY":"SGP4","MEAN_MOTION_DDOT":"0.0000000000000","SITE":"AFETR","EPHEMERIS_TYPE":"0","LAUNCH_DATE":"2020-06-04","REV_AT_EPOCH":"10242","RA_OF_ASC_NODE":"29.3517","ECCENTRICITY":"0.00015640","REF_FRAME":"TEME","MEAN_MOTION_DOT":"0.00005863","PERIOD":"95.593","DECAY_DATE":null,"SEMIMAJOR_AXIS":"6925.402"},{"SITE":"AFETR","EPHEMERIS_TYPE":"0","MEAN_MOTION_DDOT":"0.0000000000000","RA_OF_ASC_NODE":"30.3252","ECCENTRICITY":"0.00016220","REV_AT_EPOCH":"10196","LAUNCH_DATE":"2020-06-04","REF_FRAME":"TEME","SEMIMAJOR_AXIS":"6925.412","DECAY_DATE":null,"PERIOD":"95.593","MEAN_MOTION_DOT":"0.00001379","OBJECT_TYPE":"PAYLOAD","RCS_SIZE":"LARGE","CENTER_NAME":"EARTH","OBJECT_NAME":"STARLINK-1452","PERIAPSIS":"546.154","APOAPSIS":"548.401","MEAN_ELEMENT_THEORY":"SGP4","OBJECT_ID":"2020-035N","EPOCH":"2022-04-04T07:12:58.036608","BSTAR":"0.00011150000000","MEAN_ANOMALY":"314.0983","INCLINATION":"53.0564","CLASSIFICATION_TYPE":"U","ELEMENT_SET_NO":"999","TLE_LINE2":"2 45669  53.0564  30.3252 0001622  46.0139 314.0983 15.06379215101968","TLE_LINE1":"1 45669U 20035N   22094.30067172  .00001379  00000-0  11150-3 0  9994","COUNTRY_CODE":"US","GP_ID":"200434703","FILE":"3388232","NORAD_CAT_ID":"45669","ARG_OF_PERICENTER":"46.0139","MEAN_MOTION":"15.06379215","TIME_SYSTEM":"UTC"}];
